{"fetched_at":"2026-03-29T16:36:15Z","count":15609,"tles":[{"name":"KUIPER-00060","line1":"1 64520U 25134W   26087.85597838  .00000081  00000+0  39573-4 0  9997","line2":"2 64520  51.9013 135.8685 0000610  91.4454 268.6579 14.79919944 43072","category":"Other"}]}